      2.10          N: GNSS NAV DATA                        RINEX VERSION / TYPE
fic2rin                                 10/29/2021 00:17:46 PGM / RUN BY / DATE
                                                            END OF HEADER
 9 21 10 28 18  0  0.0-3.619082272053e-04 0.000000000000e+00 0.000000000000e+00
    5.500000000000e+01-3.425000000000e+01 4.792699635177e-09 2.878445737813e+00
   -1.670792698860e-06 2.314867917448e-03 8.799135684967e-06 5.153684272766e+03
    4.104000000000e+05 1.434236764908e-07 2.155781293538e+00-1.862645149231e-09
    9.535736268205e-01 2.055937500000e+02 1.817475347841e+00-8.011762293487e-09
    2.167947446570e-10 1.000000000000e+00 2.181000000000e+03 0.000000000000e+00
    2.400000000000e+00 0.000000000000e+00 1.396983861923e-09 5.500000000000e+01
    4.032000000000e+05 4.000000000000e+00
 6 21 10 28 18  0  0.0 1.047910191119e-04 8.640199666843e-12 0.000000000000e+00
    7.400000000000e+01-7.000000000000e+00 3.941949912322e-09 6.045938460690e-01
   -3.688037395477e-07 2.314578159712e-03 4.431232810020e-06 5.153604227066e+03
    4.104000000000e+05-1.303851604462e-08 8.237803763878e-02-2.235174179077e-08
    9.856057688593e-01 3.034375000000e+02-1.039129064011e+00-7.979618097409e-09
    1.475061442230e-10 1.000000000000e+00 2.181000000000e+03 0.000000000000e+00
    2.400000000000e+00 0.000000000000e+00 4.190951585770e-09 7.400000000000e+01
    4.032000000000e+05 4.000000000000e+00
 5 21 10 28 18  0  0.0-5.918880924582e-05-1.250555214938e-12 0.000000000000e+00
    1.880000000000e+02-7.050000000000e+01 4.585905307078e-09 2.839141961042e+00
   -3.740191459656e-06 6.042957305908e-03 6.483867764473e-06 5.153611328125e+03
    4.104000000000e+05-1.303851604462e-08 1.087534271505e+00-9.313225746155e-08
    9.579106771447e-01 2.547187500000e+02 1.011765463681e+00-7.989975671701e-09
    1.050043738536e-10 1.000000000000e+00 2.181000000000e+03 0.000000000000e+00
    2.400000000000e+00 0.000000000000e+00-1.117587089539e-08 1.880000000000e+02
    4.032000000000e+05 4.000000000000e+00
 8 21 10 28 18  0  0.0-4.186108708382e-05-1.477928890381e-12 0.000000000000e+00
    1.770000000000e+02 7.365625000000e+01 4.239105147173e-09 2.554336594303e+00
    3.762543201447e-06 6.660178652965e-03 6.636604666710e-06 5.153675765991e+03
    4.104000000000e+05-8.568167686462e-08-9.866692313053e-01 3.166496753693e-08
    9.658039672119e-01 2.539062500000e+02 5.284362341188e-02-7.980332412877e-09
   -2.964409193827e-11 1.000000000000e+00 2.181000000000e+03 0.000000000000e+00
    2.400000000000e+00 0.000000000000e+00 5.122274160385e-09 1.770000000000e+02
    4.032000000000e+05 4.000000000000e+00
 4 21 10 28 18  0  0.0-2.029757015407e-04 6.821210263297e-13 0.000000000000e+00
    1.100000000000e+02-3.093750000000e+01 4.660194115791e-09 2.053381750289e+00
   -1.505017280579e-06 1.471789786592e-03 8.992850780487e-06 5.153683841705e+03
    4.104000000000e+05 2.980232238770e-08 2.207857742229e+00 1.173466444016e-07
    9.606714873664e-01 2.070937500000e+02-3.121870229877e+00-7.963188841636e-09
    2.642967233051e-10 1.000000000000e+00 2.181000000000e+03 0.000000000000e+00
    2.400000000000e+00 0.000000000000e+00-4.190951585770e-09 1.100000000000e+02
    4.032000000000e+05 4.000000000000e+00
 7 21 10 28 18  0  0.0 2.697184681892e-04 5.911715561524e-12 0.000000000000e+00
    1.840000000000e+02 2.390625000000e+01 5.050210361533e-09-4.149927492452e-01
    1.305714249611e-06 1.530209684279e-02 7.234513759613e-06 5.153723670959e+03
    4.104000000000e+05-2.607703208923e-08-3.055524946376e+00 2.048909664154e-07
    9.516208008832e-01 2.350625000000e+02-2.302232581479e+00-8.412136113520e-09
   -1.132190017402e-10 1.000000000000e+00 2.181000000000e+03 0.000000000000e+00
    2.400000000000e+00 0.000000000000e+00-1.117587089539e-08 1.840000000000e+02
    4.032000000000e+05 4.000000000000e+00
22 21 10 28 18  0  0.0-4.782606847584e-04 9.094947017729e-12 0.000000000000e+00
    1.500000000000e+01-8.809375000000e+01 5.134499586803e-09 1.331503342139e+00
   -4.570931196213e-06 6.726289750077e-03 6.085261702538e-06 5.153700267792e+03
    4.104000000000e+05 2.030283212662e-07 1.021551930664e+00-4.842877388000e-08
    9.367605711979e-01 2.521562500000e+02-8.808233866067e-01-8.362848346201e-09
    1.075044779930e-10 1.000000000000e+00 2.181000000000e+03 0.000000000000e+00
    2.400000000000e+00 0.000000000000e+00-1.769512891769e-08 1.500000000000e+01
    4.032000000000e+05 4.000000000000e+00
19 21 10 28 18  0  0.0 7.188040763140e-05 5.002220859751e-12 0.000000000000e+00
    9.000000000000e+00 4.821875000000e+01 3.914448766789e-09-1.433674490229e+00
    2.715736627579e-06 8.986186468974e-03 6.917864084244e-06 5.153663347244e+03
    4.104000000000e+05-1.806765794754e-07-8.613993323512e-01 8.009374141693e-08
    9.795134362777e-01 2.580312500000e+02 1.966553966432e+00-7.927473068216e-09
    7.428880871279e-11 1.000000000000e+00 2.181000000000e+03 0.000000000000e+00
    2.400000000000e+00 0.000000000000e+00-1.583248376846e-08 9.000000000000e+00
    4.032000000000e+05 4.000000000000e+00
31 21 10 28 18  0  0.0-1.473035663366e-04-1.932676241267e-12 0.000000000000e+00
    3.900000000000e+01 2.081250000000e+01 4.843416033433e-09-8.607076646833e-01
    1.100823283195e-06 1.031165162567e-02 7.040798664093e-06 5.153628416061e+03
    4.104000000000e+05 2.272427082062e-07-3.037872175776e+00-3.539025783539e-08
    9.558942347517e-01 2.400312500000e+02 3.194535881242e-01-8.092479941415e-09
   -8.857511808063e-11 1.000000000000e+00 2.181000000000e+03 0.000000000000e+00
    2.400000000000e+00 0.000000000000e+00-1.303851604462e-08 3.900000000000e+01
    4.032000000000e+05 4.000000000000e+00
16 21 10 28 18  0  0.0-4.146904684603e-04-6.366462912410e-12 0.000000000000e+00
    3.300000000000e+01 5.137500000000e+01 4.138743823864e-09-2.976961551015e+00
    2.529472112656e-06 1.234315626789e-02 8.028000593185e-06 5.153781291962e+03
    4.104000000000e+05 1.862645149231e-09-1.925048582800e+00-1.974403858185e-07
    9.715753692139e-01 2.301875000000e+02 6.824609728846e-01-7.662819187177e-09
   -3.260850113210e-10 1.000000000000e+00 2.181000000000e+03 0.000000000000e+00
    2.400000000000e+00 0.000000000000e+00-1.024454832077e-08 3.300000000000e+01
    4.032000000000e+05 4.000000000000e+00
30 21 10 28 18  0  0.0-4.864926449955e-04-3.410605131648e-12 0.000000000000e+00
    3.600000000000e+01 2.453125000000e+01 5.264147844316e-09-4.846733864891e-01
    1.179054379463e-06 5.345292855054e-03 7.066875696182e-06 5.153624403000e+03
    4.104000000000e+05 2.793967723846e-08-3.040714027270e+00 5.587935447693e-08
    9.368038764988e-01 2.299062500000e+02-2.738691251426e+00-8.364634134872e-09
   -9.893269237232e-11 1.000000000000e+00 2.181000000000e+03 0.000000000000e+00
    2.400000000000e+00 0.000000000000e+00 3.725290298462e-09 3.600000000000e+01
    4.032000000000e+05 4.000000000000e+00
27 21 10 28 18  0  0.0-2.121445722878e-04-4.888534022029e-12 0.000000000000e+00
    2.700000000000e+01 7.025000000000e+01 3.976237054805e-09 2.432331308225e+00
    3.540888428688e-06 9.609885513783e-03 6.539747118950e-06 5.153650350571e+03
    4.104000000000e+05-8.381903171539e-08-9.681415757141e-01-1.527369022369e-07
    9.744625945756e-01 2.607812500000e+02 6.295365656734e-01-7.843541000680e-09
    1.892935991239e-11 1.000000000000e+00 2.181000000000e+03 0.000000000000e+00
    2.400000000000e+00 0.000000000000e+00 1.862645149231e-09 2.700000000000e+01
    4.032000000000e+05 4.000000000000e+00
17 21 10 28 18  0  0.0 5.257292650640e-04 5.456968210638e-12 0.000000000000e+00
    3.000000000000e+01 5.387500000000e+01 3.744798843046e-09 2.484846842999e+00
    2.814456820488e-06 1.370813301764e-02 6.418675184250e-06 5.153694892883e+03
    4.104000000000e+05 1.378357410431e-07-9.063967584918e-01-5.960464477539e-08
    9.808258288641e-01 2.603125000000e+02-1.545184665955e+00-7.574244069096e-09
   -4.357324357192e-11 1.000000000000e+00 2.181000000000e+03 0.000000000000e+00
    2.400000000000e+00 0.000000000000e+00-1.117587089539e-08 3.000000000000e+01
    4.032000000000e+05 4.000000000000e+00
29 21 10 28 18  0  0.0-4.327357746661e-04-5.343281372916e-12 0.000000000000e+00
    8.400000000000e+01 5.253125000000e+01 3.854446267444e-09 2.465719159854e+00
    2.862885594368e-06 1.869204221293e-03 6.198883056641e-06 5.153563835144e+03
    4.104000000000e+05-4.656612873077e-08-8.936188039758e-01 1.676380634308e-08
    9.827820180501e-01 2.726875000000e+02 2.381484859112e+00-7.764966299157e-09
   -4.357324357192e-11 1.000000000000e+00 2.181000000000e+03 0.000000000000e+00
    2.400000000000e+00 0.000000000000e+00-1.024454832077e-08 8.400000000000e+01
    4.032000000000e+05 4.000000000000e+00
15 21 10 28 18  0  0.0-1.106052659452e-04 2.842170943040e-12 0.000000000000e+00
    7.000000000000e+01-3.650000000000e+01 5.379866950196e-09 1.539785083601e+00
   -1.927837729454e-06 1.384610775858e-02 9.197741746902e-06 5.153695466995e+03
    4.104000000000e+05-3.520399332047e-07 2.052620436017e+00-1.303851604462e-07
    9.292789404265e-01 1.904062500000e+02 1.046648302017e+00-8.404278643368e-09
    1.800074980348e-10 1.000000000000e+00 2.181000000000e+03 0.000000000000e+00
    2.400000000000e+00 0.000000000000e+00-1.071020960808e-08 7.000000000000e+01
    4.032000000000e+05 4.000000000000e+00
13 21 10 28 18  0  0.0 2.062991261482e-04 5.570655048359e-12 0.000000000000e+00
    7.400000000000e+01-1.734375000000e+01 4.439113478323e-09 1.897631846360e+00
   -9.015202522278e-07 5.639653652906e-03 8.970499038696e-06 5.153681737900e+03
    4.104000000000e+05-1.434236764908e-07 2.306883862218e+00-1.247972249985e-07
    9.682823757275e-01 2.107187500000e+02 9.748971046518e-01-7.815682697413e-09
    2.210806374674e-10 1.000000000000e+00 2.181000000000e+03 0.000000000000e+00
    2.400000000000e+00 0.000000000000e+00-1.117587089539e-08 7.400000000000e+01
    4.032000000000e+05 4.000000000000e+00
